[{"OBJECT_NAME":"HELIOS 1B","OBJECT_ID":"1999-064A","EPOCH":"2026-03-08T15:18:18.064512","MEAN_MOTION":14.87694977,"ECCENTRICITY":0.00024326,"INCLINATION":98.1693,"RA_OF_ASC_NODE":329.8504,"ARG_OF_PERICENTER":76.1561,"MEAN_ANOMALY":283.9925,"EPHEMERIS_TYPE":0,"CLASSIFICATION_TYPE":"U","NORAD_CAT_ID":25977,"ELEMENT_SET_NO":999,"REV_AT_EPOCH":68510,"BSTAR":0.00027527427,"MEAN_MOTION_DOT":2.449e-5,"MEAN_MOTION_DDOT":0},{"OBJECT_NAME":"TERRA","OBJECT_ID":"1999-068A","EPOCH":"2026-03-08T15:19:30.918720","MEAN_MOTION":14.61013713,"ECCENTRICITY":0.00026291,"INCLINATION":97.9596,"RA_OF_ASC_NODE":121.1135,"ARG_OF_PERICENTER":153.7439,"MEAN_ANOMALY":7.7612,"EPHEMERIS_TYPE":0,"CLASSIFICATION_TYPE":"U","NORAD_CAT_ID":25994,"ELEMENT_SET_NO":999,"REV_AT_EPOCH":39492,"BSTAR":0.00013614451,"MEAN_MOTION_DOT":6.23e-6,"MEAN_MOTION_DDOT":0},{"OBJECT_NAME":"SL-16 R/B","OBJECT_ID":"2000-006B","EPOCH":"2026-03-08T12:41:27.768768","MEAN_MOTION":14.15825843,"ECCENTRICITY":0.00168505,"INCLINATION":71.0011,"RA_OF_ASC_NODE":100.2788,"ARG_OF_PERICENTER":191.9303,"MEAN_ANOMALY":168.1424,"EPHEMERIS_TYPE":0,"CLASSIFICATION_TYPE":"U","NORAD_CAT_ID":26070,"ELEMENT_SET_NO":999,"REV_AT_EPOCH":34839,"BSTAR":5.676514e-6,"MEAN_MOTION_DOT":-3.7e-7,"MEAN_MOTION_DDOT":0},{"OBJECT_NAME":"TITAN 4B R/B","OBJECT_ID":"2000-047B","EPOCH":"2026-03-08T12:05:37.445568","MEAN_MOTION":15.0954941,"ECCENTRICITY":0.00385359,"INCLINATION":67.99,"RA_OF_ASC_NODE":43.8444,"ARG_OF_PERICENTER":36.7954,"MEAN_ANOMALY":323.5828,"EPHEMERIS_TYPE":0,"CLASSIFICATION_TYPE":"U","NORAD_CAT_ID":26474,"ELEMENT_SET_NO":999,"REV_AT_EPOCH":39273,"BSTAR":0.00041847087,"MEAN_MOTION_DOT":6.72e-5,"MEAN_MOTION_DDOT":0},{"OBJECT_NAME":"ENVISAT","OBJECT_ID":"2002-009A","EPOCH":"2026-03-08T12:16:04.873728","MEAN_MOTION":14.39036556,"ECCENTRICITY":0.00013349,"INCLINATION":98.3728,"RA_OF_ASC_NODE":21.1365,"ARG_OF_PERICENTER":82.9485,"MEAN_ANOMALY":38.499,"EPHEMERIS_TYPE":0,"CLASSIFICATION_TYPE":"U","NORAD_CAT_ID":27386,"ELEMENT_SET_NO":999,"REV_AT_EPOCH":25900,"BSTAR":8.075129e-5,"MEAN_MOTION_DOT":2.07e-6,"MEAN_MOTION_DDOT":0},{"OBJECT_NAME":"IDEFIX & ARIANE 42P R/B","OBJECT_ID":"2002-021B","EPOCH":"2026-03-08T10:43:46.327008","MEAN_MOTION":14.31025423,"ECCENTRICITY":0.00114958,"INCLINATION":98.5868,"RA_OF_ASC_NODE":6.0682,"ARG_OF_PERICENTER":185.9231,"MEAN_ANOMALY":174.1818,"EPHEMERIS_TYPE":0,"CLASSIFICATION_TYPE":"U","NORAD_CAT_ID":27422,"ELEMENT_SET_NO":999,"REV_AT_EPOCH":24384,"BSTAR":0.00018126636,"MEAN_MOTION_DOT":4.34e-6,"MEAN_MOTION_DDOT":0},{"OBJECT_NAME":"AQUA","OBJECT_ID":"2002-022A","EPOCH":"2026-03-08T14:07:09.763680","MEAN_MOTION":14.61974516,"ECCENTRICITY":5.699e-5,"INCLINATION":98.4174,"RA_OF_ASC_NODE":34.9331,"ARG_OF_PERICENTER":75.3026,"MEAN_ANOMALY":339.5267,"EPHEMERIS_TYPE":0,"CLASSIFICATION_TYPE":"U","NORAD_CAT_ID":27424,"ELEMENT_SET_NO":999,"REV_AT_EPOCH":26857,"BSTAR":0.00031620029,"MEAN_MOTION_DOT":1.535e-5,"MEAN_MOTION_DDOT":0},{"OBJECT_NAME":"CZ-4B R/B","OBJECT_ID":"2002-024C","EPOCH":"2026-03-08T14:22:15.297024","MEAN_MOTION":14.14547474,"ECCENTRICITY":0.00505328,"INCLINATION":98.8841,"RA_OF_ASC_NODE":121.011,"ARG_OF_PERICENTER":27.3021,"MEAN_ANOMALY":92.5486,"EPHEMERIS_TYPE":0,"CLASSIFICATION_TYPE":"U","NORAD_CAT_ID":27432,"ELEMENT_SET_NO":999,"REV_AT_EPOCH":22908,"BSTAR":4.8101067e-5,"MEAN_MOTION_DOT":4.9e-7,"MEAN_MOTION_DDOT":0},{"OBJECT_NAME":"MIDORI II (ADEOS-II)","OBJECT_ID":"2002-056A","EPOCH":"2026-03-08T11:22:00.447456","MEAN_MOTION":14.29284186,"ECCENTRICITY":0.00016374,"INCLINATION":98.7768,"RA_OF_ASC_NODE":25.9428,"ARG_OF_PERICENTER":44.4388,"MEAN_ANOMALY":315.6924,"EPHEMERIS_TYPE":0,"CLASSIFICATION_TYPE":"U","NORAD_CAT_ID":27597,"ELEMENT_SET_NO":999,"REV_AT_EPOCH":21012,"BSTAR":0.00019568274,"MEAN_MOTION_DOT":4.52e-6,"MEAN_MOTION_DDOT":0},{"OBJECT_NAME":"H-2A R/B","OBJECT_ID":"2002-056E","EPOCH":"2026-03-08T12:45:26.631072","MEAN_MOTION":14.33759926,"ECCENTRICITY":0.00704383,"INCLINATION":98.3202,"RA_OF_ASC_NODE":27.9412,"ARG_OF_PERICENTER":164.097,"MEAN_ANOMALY":311.7337,"EPHEMERIS_TYPE":0,"CLASSIFICATION_TYPE":"U","NORAD_CAT_ID":27601,"ELEMENT_SET_NO":999,"REV_AT_EPOCH":21394,"BSTAR":0.00014636816,"MEAN_MOTION_DOT":3.77e-6,"MEAN_MOTION_DDOT":0},{"OBJECT_NAME":"CZ-4B R/B","OBJECT_ID":"2003-049C","EPOCH":"2026-03-08T13:23:57.608160","MEAN_MOTION":14.5501922,"ECCENTRICITY":0.00472107,"INCLINATION":98.6879,"RA_OF_ASC_NODE":62.4187,"ARG_OF_PERICENTER":234.4331,"MEAN_ANOMALY":125.246,"EPHEMERIS_TYPE":0,"CLASSIFICATION_TYPE":"U","NORAD_CAT_ID":28059,"ELEMENT_SET_NO":999,"REV_AT_EPOCH":18643,"BSTAR":0.00013909932,"MEAN_MOTION_DOT":5.56e-6,"MEAN_MOTION_DDOT":0},{"OBJECT_NAME":"CZ-2C R/B","OBJECT_ID":"2004-012C","EPOCH":"2026-03-08T03:18:39.701664","MEAN_MOTION":15.64285708,"ECCENTRICITY":0.0013011,"INCLINATION":97.7227,"RA_OF_ASC_NODE":132.2834,"ARG_OF_PERICENTER":315.6412,"MEAN_ANOMALY":44.3802,"EPHEMERIS_TYPE":0,"CLASSIFICATION_TYPE":"U","NORAD_CAT_ID":28222,"ELEMENT_SET_NO":999,"REV_AT_EPOCH":20403,"BSTAR":0.0007585605,"MEAN_MOTION_DOT":0.00073007,"MEAN_MOTION_DDOT":0},{"OBJECT_NAME":"SL-16 R/B","OBJECT_ID":"2004-021B","EPOCH":"2026-03-08T14:36:10.931904","MEAN_MOTION":14.14598411,"ECCENTRICITY":0.00039808,"INCLINATION":70.9994,"RA_OF_ASC_NODE":234.7615,"ARG_OF_PERICENTER":11.3004,"MEAN_ANOMALY":348.8207,"EPHEMERIS_TYPE":0,"CLASSIFICATION_TYPE":"U","NORAD_CAT_ID":28353,"ELEMENT_SET_NO":999,"REV_AT_EPOCH":12268,"BSTAR":-9.3771337e-5,"MEAN_MOTION_DOT":-2.28e-6,"MEAN_MOTION_DDOT":0},{"OBJECT_NAME":"CZ-4B R/B","OBJECT_ID":"2004-035C","EPOCH":"2026-03-08T14:24:33.824736","MEAN_MOTION":15.29042612,"ECCENTRICITY":0.00311127,"INCLINATION":97.3498,"RA_OF_ASC_NODE":101.8557,"ARG_OF_PERICENTER":335.5895,"MEAN_ANOMALY":24.3869,"EPHEMERIS_TYPE":0,"CLASSIFICATION_TYPE":"U","NORAD_CAT_ID":28415,"ELEMENT_SET_NO":999,"REV_AT_EPOCH":17974,"BSTAR":0.00041524041,"MEAN_MOTION_DOT":0.00011809,"MEAN_MOTION_DDOT":0},{"OBJECT_NAME":"CZ-2C R/B","OBJECT_ID":"2004-046B","EPOCH":"2026-03-08T12:05:37.687488","MEAN_MOTION":14.26991577,"ECCENTRICITY":0.01398263,"INCLINATION":98.1984,"RA_OF_ASC_NODE":342.5617,"ARG_OF_PERICENTER":157.9305,"MEAN_ANOMALY":202.7978,"EPHEMERIS_TYPE":0,"CLASSIFICATION_TYPE":"U","NORAD_CAT_ID":28480,"ELEMENT_SET_NO":999,"REV_AT_EPOCH":10833,"BSTAR":7.4573401e-5,"MEAN_MOTION_DOT":1.61e-6,"MEAN_MOTION_DDOT":0},{"OBJECT_NAME":"ARIANE 5 R/B","OBJECT_ID":"2004-049H","EPOCH":"2026-03-08T10:04:51.126816","MEAN_MOTION":14.85263891,"ECCENTRICITY":0.00840297,"INCLINATION":98.2625,"RA_OF_ASC_NODE":235.8295,"ARG_OF_PERICENTER":356.0582,"MEAN_ANOMALY":3.996,"EPHEMERIS_TYPE":0,"CLASSIFICATION_TYPE":"U","NORAD_CAT_ID":28499,"ELEMENT_SET_NO":999,"REV_AT_EPOCH":14560,"BSTAR":0.00013284705,"MEAN_MOTION_DOT":1.149e-5,"MEAN_MOTION_DDOT":0},{"OBJECT_NAME":"CZ-2D R/B","OBJECT_ID":"2005-024B","EPOCH":"2026-03-08T13:18:58.716000","MEAN_MOTION":15.60028915,"ECCENTRICITY":0.00060779,"INCLINATION":97.3598,"RA_OF_ASC_NODE":82.6594,"ARG_OF_PERICENTER":49.8688,"MEAN_ANOMALY":310.3101,"EPHEMERIS_TYPE":0,"CLASSIFICATION_TYPE":"U","NORAD_CAT_ID":28738,"ELEMENT_SET_NO":999,"REV_AT_EPOCH":13960,"BSTAR":0.00070477012,"MEAN_MOTION_DOT":0.00057228,"MEAN_MOTION_DDOT":0}]
