HELIOS 1B               
1 25977U 99064A   26067.63770908  .00002449  00000+0  27527-3 0  9993
2 25977  98.1693 329.8504 0002432  76.1561 283.9925 14.87694977685106
TERRA                   
1 25994U 99068A   26067.63855230  .00000623  00000+0  13614-3 0  9992
2 25994  97.9596 121.1135 0002629 153.7439   7.7612 14.61013713394928
SL-16 R/B               
1 26070U 00006B   26067.52879362 -.00000037  00000+0  56765-5 0  9998
2 26070  71.0011 100.2788 0016850 191.9303 168.1424 14.15825843348393
TITAN 4B R/B            
1 26474U 00047B   26067.50390562  .00006720  00000+0  41847-3 0  9996
2 26474  67.9900  43.8444 0038535  36.7954 323.5828 15.09549410392734
ENVISAT                 
1 27386U 02009A   26067.51116752  .00000207  00000+0  80751-4 0  9999
2 27386  98.3728  21.1365 0001334  82.9485  38.4990 14.39036556259001
IDEFIX & ARIANE 42P R/B 
1 27422U 02021B   26067.44706397  .00000434  00000+0  18127-3 0  9995
2 27422  98.5868   6.0682 0011495 185.9231 174.1818 14.31025423243840
AQUA                    
1 27424U 02022A   26067.58830745  .00001535  00000+0  31620-3 0  9994
2 27424  98.4174  34.9331 0000569  75.3026 339.5267 14.61974516268577
CZ-4B R/B               
1 27432U 02024C   26067.59878816  .00000049  00000+0  48101-4 0  9999
2 27432  98.8841 121.0110 0050532  27.3021  92.5486 14.14547474229080
MIDORI II (ADEOS-II)    
1 27597U 02056A   26067.47361629  .00000452  00000+0  19568-3 0  9994
2 27597  98.7768  25.9428 0001637  44.4388 315.6924 14.29284186210126
H-2A R/B                
1 27601U 02056E   26067.53155823  .00000377  00000+0  14637-3 0  9992
2 27601  98.3202  27.9412 0070438 164.0970 311.7337 14.33759926213949
CZ-4B R/B               
1 28059U 03049C   26067.55830565  .00000556  00000+0  13910-3 0  9990
2 28059  98.6879  62.4187 0047210 234.4331 125.2460 14.55019220186436
CZ-2C R/B               
1 28222U 04012C   26067.13795951  .00073007  00000+0  75856-3 0  9994
2 28222  97.7227 132.2834 0013011 315.6412  44.3802 15.64285708204039
SL-16 R/B               
1 28353U 04021B   26067.60845986 -.00000228  00000+0 -93771-4 0  9999
2 28353  70.9994 234.7615 0003980  11.3004 348.8207 14.14598411122687
CZ-4B R/B               
1 28415U 04035C   26067.60039149  .00011809  00000+0  41524-3 0  9992
2 28415  97.3498 101.8557 0031112 335.5895  24.3869 15.29042612179747
CZ-2C R/B               
1 28480U 04046B   26067.50390842  .00000161  00000+0  74573-4 0  9995
2 28480  98.1984 342.5617 0139826 157.9305 202.7978 14.26991577108331
ARIANE 5 R/B            
1 28499U 04049H   26067.42003619  .00001149  00000+0  13285-3 0  9991
2 28499  98.2625 235.8295 0084029 356.0582   3.9960 14.85263891145602
CZ-2D R/B               
1 28738U 05024B   26067.55484625  .00057228  00000+0  70477-3 0  9990
2 28738  97.3598  82.6594 0006077  49.8688 310.3101 15.60028915139603
